{"type": "FeatureCollection", "features": [{"type": "Feature", "properties": {"norad_id": 22490, "name": "SCD 1", "group": "resource", "lat": 5.407250078548336, "lon": -84.56023280217666, "alt_km": 708.43437248191, "timestamp": "2025-12-15T04:01:20.099032+00:00", "meta": {"OBJECT_NAME": "SCD 1", "OBJECT_ID": "1993-009B", "EPOCH": "2025-12-14T03:13:19.104096", "MEAN_MOTION": 14.46000296, "ECCENTRICITY": 0.00418525, "INCLINATION": 24.9696, "RA_OF_ASC_NODE": 270.0794, "ARG_OF_PERICENTER": 339.8321, "MEAN_ANOMALY": 42.8273, "EPHEMERIS_TYPE": 0, "CLASSIFICATION_TYPE": "U", "NORAD_CAT_ID": 22490, "ELEMENT_SET_NO": 999, "REV_AT_EPOCH": 73430, "BSTAR": 0.00012588183, "MEAN_MOTION_DOT": 6.46e-06, "MEAN_MOTION_DDOT": 0}, "tle": {"line1": "1 22490U 93009B   25348.13424889  .00000646  00000+0  12588-3 0  9991", "line2": "2 22490  24.9696 270.0794 0041852 339.8321  42.8273 14.46000296734308"}}, "geometry": {"type": "Point", "coordinates": [-84.56023280217666, 5.407250078548336]}}, {"type": "Feature", "properties": {"norad_id": 25397, "name": "TECHSAT 1B (GO-32)", "group": "resource", "lat": 11.289878665113257, "lon": -29.375906742452894, "alt_km": 810.8022146147068, "timestamp": "2025-12-15T04:01:20.099072+00:00", "meta": {"OBJECT_NAME": "TECHSAT 1B (GO-32)", "OBJECT_ID": "1998-043D", "EPOCH": "2025-12-13T21:37:21.693792", "MEAN_MOTION": 14.24377408, "ECCENTRICITY": 0.00020263, "INCLINATION": 98.9921, "RA_OF_ASC_NODE": 331.1398, "ARG_OF_PERICENTER": 55.4203, "MEAN_ANOMALY": 304.7166, "EPHEMERIS_TYPE": 0, "CLASSIFICATION_TYPE": "U", "NORAD_CAT_ID": 25397, "ELEMENT_SET_NO": 999, "REV_AT_EPOCH": 42495, "BSTAR": 8.3391826e-05, "MEAN_MOTION_DOT": 1.46e-06, "MEAN_MOTION_DDOT": 0}, "tle": {"line1": "1 25397U 98043D   25347.90094553  .00000146  00000+0  83392-4 0  9995", "line2": "2 25397  98.9921 331.1398 0002026  55.4203 304.7166 14.24377408424954"}}, "geometry": {"type": "Point", "coordinates": [-29.375906742452894, 11.289878665113257]}}, {"type": "Feature", "properties": {"norad_id": 25504, "name": "SCD 2", "group": "resource", "lat": 15.716077709269223, "lon": 164.087943385218, "alt_km": 730.5434662980142, "timestamp": "2025-12-15T04:01:20.099088+00:00", "meta": {"OBJECT_NAME": "SCD 2", "OBJECT_ID": "1998-060A", "EPOCH": "2025-12-13T17:38:54.244320", "MEAN_MOTION": 14.45424097, "ECCENTRICITY": 0.00166891, "INCLINATION": 24.9935, "RA_OF_ASC_NODE": 135.7566, "ARG_OF_PERICENTER": 324.2474, "MEAN_ANOMALY": 167.6717, "EPHEMERIS_TYPE": 0, "CLASSIFICATION_TYPE": "U", "NORAD_CAT_ID": 25504, "ELEMENT_SET_NO": 999, "REV_AT_EPOCH": 43346, "BSTAR": 0.00010752318, "MEAN_MOTION_DOT": 5.67e-06, "MEAN_MOTION_DDOT": 0}, "tle": {"line1": "1 25504U 98060A   25347.73535005  .00000567  00000+0  10752-3 0  9993", "line2": "2 25504  24.9935 135.7566 0016689 324.2474 167.6717 14.45424097433464"}}, "geometry": {"type": "Point", "coordinates": [164.087943385218, 15.716077709269223]}}, {"type": "Feature", "properties": {"norad_id": 25757, "name": "DLR-TUBSAT", "group": "resource", "lat": 64.6422426536733, "lon": 172.50682999543605, "alt_km": 708.4462307168187, "timestamp": "2025-12-15T04:01:20.099101+00:00", "meta": {"OBJECT_NAME": "DLR-TUBSAT", "OBJECT_ID": "1999-029B", "EPOCH": "2025-12-14T06:00:14.959296", "MEAN_MOTION": 14.52358401, "ECCENTRICITY": 0.00139912, "INCLINATION": 98.6565, "RA_OF_ASC_NODE": 332.8106, "ARG_OF_PERICENTER": 188.0788, "MEAN_ANOMALY": 172.0183, "EPHEMERIS_TYPE": 0, "CLASSIFICATION_TYPE": "U", "NORAD_CAT_ID": 25757, "ELEMENT_SET_NO": 999, "REV_AT_EPOCH": 40640, "BSTAR": 6.2487225e-05, "MEAN_MOTION_DOT": 2.06e-06, "MEAN_MOTION_DDOT": 0}, "tle": {"line1": "1 25757U 99029B   25348.25017314  .00000206  00000+0  62487-4 0  9998", "line2": "2 25757  98.6565 332.8106 0013991 188.0788 172.0183 14.52358401406402"}}, "geometry": {"type": "Point", "coordinates": [172.50682999543605, 64.6422426536733]}}, {"type": "Feature", "properties": {"norad_id": 25994, "name": "TERRA", "group": "resource", "lat": -70.11724347037634, "lon": -162.04393755035218, "alt_km": 699.9666411153885, "timestamp": "2025-12-15T04:01:20.099113+00:00", "meta": {"OBJECT_NAME": "TERRA", "OBJECT_ID": "1999-068A", "EPOCH": "2025-12-14T07:27:58.182048", "MEAN_MOTION": 14.60904074, "ECCENTRICITY": 0.00035992, "INCLINATION": 97.9749, "RA_OF_ASC_NODE": 39.9379, "ARG_OF_PERICENTER": 91.3882, "MEAN_ANOMALY": 338.4056, "EPHEMERIS_TYPE": 0, "CLASSIFICATION_TYPE": "U", "NORAD_CAT_ID": 25994, "ELEMENT_SET_NO": 999, "REV_AT_EPOCH": 38261, "BSTAR": 0.00014673436, "MEAN_MOTION_DOT": 6.74e-06, "MEAN_MOTION_DDOT": 0}, "tle": {"line1": "1 25994U 99068A   25348.31109007  .00000674  00000+0  14673-3 0  9994", "line2": "2 25994  97.9749  39.9379 0003599  91.3882 338.4056 14.60904074382617"}}, "geometry": {"type": "Point", "coordinates": [-162.04393755035218, -70.11724347037634]}}, {"type": "Feature", "properties": {"norad_id": 27004, "name": "MAROC-TUBSAT", "group": "resource", "lat": 10.412127698369622, "lon": -20.52712093607534, "alt_km": 998.6360900014133, "timestamp": "2025-12-15T04:01:20.099126+00:00", "meta": {"OBJECT_NAME": "MAROC-TUBSAT", "OBJECT_ID": "2001-056D", "EPOCH": "2025-12-14T08:14:37.815936", "MEAN_MOTION": 13.70252956, "ECCENTRICITY": 0.00191098, "INCLINATION": 99.7912, "RA_OF_ASC_NODE": 156.8165, "ARG_OF_PERICENTER": 255.8923, "MEAN_ANOMALY": 170.5435, "EPHEMERIS_TYPE": 0, "CLASSIFICATION_TYPE": "U", "NORAD_CAT_ID": 27004, "ELEMENT_SET_NO": 999, "REV_AT_EPOCH": 20087, "BSTAR": 3.79301e-05, "MEAN_MOTION_DOT": -1.3e-07, "MEAN_MOTION_DDOT": 0}, "tle": {"line1": "1 27004U 01056D   25348.34349324 -.00000013  00000+0  37930-4 0  9999", "line2": "2 27004  99.7912 156.8165 0019109 255.8923 170.5435 13.70252956200870"}}, "geometry": {"type": "Point", "coordinates": [-20.52712093607534, 10.412127698369622]}}, {"type": "Feature", "properties": {"norad_id": 27424, "name": "AQUA", "group": "resource", "lat": 44.52982546542446, "lon": 138.44798840213116, "alt_km": 682.7713768970107, "timestamp": "2025-12-15T04:01:20.099137+00:00", "meta": {"OBJECT_NAME": "AQUA", "OBJECT_ID": "2002-022A", "EPOCH": "2025-12-14T08:26:00.598848", "MEAN_MOTION": 14.61814134, "ECCENTRICITY": 0.00011511, "INCLINATION": 98.4039, "RA_OF_ASC_NODE": 309.2565, "ARG_OF_PERICENTER": 113.9889, "MEAN_ANOMALY": 48.0491, "EPHEMERIS_TYPE": 0, "CLASSIFICATION_TYPE": "U", "NORAD_CAT_ID": 27424, "ELEMENT_SET_NO": 999, "REV_AT_EPOCH": 25626, "BSTAR": 0.00032213199, "MEAN_MOTION_DOT": 1.559e-05, "MEAN_MOTION_DDOT": 0}, "tle": {"line1": "1 27424U 02022A   25348.35139582  .00001559  00000+0  32213-3 0  9996", "line2": "2 27424  98.4039 309.2565 0001151 113.9889  48.0491 14.61814134256261"}}, "geometry": {"type": "Point", "coordinates": [138.44798840213116, 44.52982546542446]}}, {"type": "Feature", "properties": {"norad_id": 28051, "name": "IRS-P6 (RESOURCESAT-1)", "group": "resource", "lat": 45.25052735343609, "lon": -142.1550110785012, "alt_km": 731.9273281393216, "timestamp": "2025-12-15T04:01:20.099149+00:00", "meta": {"OBJECT_NAME": "IRS-P6 (RESOURCESAT-1)", "OBJECT_ID": "2003-046A", "EPOCH": "2025-12-14T09:16:14.056320", "MEAN_MOTION": 14.36076077, "ECCENTRICITY": 0.00642375, "INCLINATION": 98.2181, "RA_OF_ASC_NODE": 28.717, "ARG_OF_PERICENTER": 175.7373, "MEAN_ANOMALY": 241.8133, "EPHEMERIS_TYPE": 0, "CLASSIFICATION_TYPE": "U", "NORAD_CAT_ID": 28051, "ELEMENT_SET_NO": 999, "REV_AT_EPOCH": 15400, "BSTAR": 0.0001052342, "MEAN_MOTION_DOT": 2.73e-06, "MEAN_MOTION_DDOT": 0}, "tle": {"line1": "1 28051U 03046A   25348.38627380  .00000273  00000+0  10523-3 0  9993", "line2": "2 28051  98.2181  28.7170 0064237 175.7373 241.8133 14.36076077154000"}}, "geometry": {"type": "Point", "coordinates": [-142.1550110785012, 45.25052735343609]}}, {"type": "Feature", "properties": {"norad_id": 28220, "name": "SHIYAN-1 (SY-1)", "group": "resource", "lat": 81.84838558086285, "lon": -53.54012952781619, "alt_km": 476.35754473658744, "timestamp": "2025-12-15T04:01:20.099160+00:00", "meta": {"OBJECT_NAME": "SHIYAN-1 (SY-1)", "OBJECT_ID": "2004-012A", "EPOCH": "2025-12-14T04:02:57.129792", "MEAN_MOTION": 15.28196137, "ECCENTRICITY": 0.00055573, "INCLINATION": 97.8937, "RA_OF_ASC_NODE": 49.7912, "ARG_OF_PERICENTER": 320.4788, "MEAN_ANOMALY": 39.6045, "EPHEMERIS_TYPE": 0, "CLASSIFICATION_TYPE": "U", "NORAD_CAT_ID": 28220, "ELEMENT_SET_NO": 999, "REV_AT_EPOCH": 18278, "BSTAR": 0.00053267183, "MEAN_MOTION_DOT": 0.00014576, "MEAN_MOTION_DDOT": 0}, "tle": {"line1": "1 28220U 04012A   25348.16871678  .00014576  00000+0  53267-3 0  9995", "line2": "2 28220  97.8937  49.7912 0005557 320.4788  39.6045 15.28196137182781"}}, "geometry": {"type": "Point", "coordinates": [-53.54012952781619, 81.84838558086285]}}, {"type": "Feature", "properties": {"norad_id": 28376, "name": "AURA", "group": "resource", "lat": -75.87424795103058, "lon": 83.85705328768765, "alt_km": 698.2806720268054, "timestamp": "2025-12-15T04:01:20.099171+00:00", "meta": {"OBJECT_NAME": "AURA", "OBJECT_ID": "2004-026A", "EPOCH": "2025-12-14T07:07:03.559872", "MEAN_MOTION": 14.60951519, "ECCENTRICITY": 0.00012629, "INCLINATION": 98.3186, "RA_OF_ASC_NODE": 298.5303, "ARG_OF_PERICENTER": 94.0328, "MEAN_ANOMALY": 266.1017, "EPHEMERIS_TYPE": 0, "CLASSIFICATION_TYPE": "U", "NORAD_CAT_ID": 28376, "ELEMENT_SET_NO": 999, "REV_AT_EPOCH": 13921, "BSTAR": 0.00031953868, "MEAN_MOTION_DOT": 1.518e-05, "MEAN_MOTION_DDOT": 0}, "tle": {"line1": "1 28376U 04026A   25348.29656898  .00001518  00000+0  31954-3 0  9992", "line2": "2 28376  98.3186 298.5303 0001262  94.0328 266.1017 14.60951519139210"}}, "geometry": {"type": "Point", "coordinates": [83.85705328768765, -75.87424795103058]}}]}